CCSDS_OMM_VERS = 2.0
CREATION_DATE  = 
ORIGINATOR     = 

OBJECT_NAME    = SL-16 R/B
OBJECT_ID      = 1998-043G
CENTER_NAME    = EARTH
REF_FRAME      = TEME
TIME_SYSTEM    = UTC
MEAN_ELEMENT_THEORY = SGP/SGP4

EPOCH          = 2026-01-25T13:56:34.036800
MEAN_MOTION    = 14.26038365
ECCENTRICITY   = .00105544
INCLINATION    = 98.8186
RA_OF_ASC_NODE = 338.6583
ARG_OF_PERICENTER = 134.9346
MEAN_ANOMALY   = 225.2691

EPHEMERIS_TYPE = 0
CLASSIFICATION_TYPE = U
NORAD_CAT_ID   = 25400
ELEMENT_SET_NO = 999
REV_AT_EPOCH   = 43284
BSTAR          = .88399446E-4
MEAN_MOTION_DOT = .166E-5
MEAN_MOTION_DDOT = 0

CCSDS_OMM_VERS = 2.0
CREATION_DATE  = 
ORIGINATOR     = 

OBJECT_NAME    = SL-16 R/B
OBJECT_ID      = 1998-045B
CENTER_NAME    = EARTH
REF_FRAME      = TEME
TIME_SYSTEM    = UTC
MEAN_ELEMENT_THEORY = SGP/SGP4

EPOCH          = 2026-01-25T15:04:36.725376
MEAN_MOTION    = 14.16186767
ECCENTRICITY   = .00051144
INCLINATION    = 71.0108
RA_OF_ASC_NODE = 272.1322
ARG_OF_PERICENTER = 91.8544
MEAN_ANOMALY   = 268.3165

EPHEMERIS_TYPE = 0
CLASSIFICATION_TYPE = U
NORAD_CAT_ID   = 25407
ELEMENT_SET_NO = 999
REV_AT_EPOCH   = 42100
BSTAR          = .87543053E-4
MEAN_MOTION_DOT = .126E-5
MEAN_MOTION_DDOT = 0

CCSDS_OMM_VERS = 2.0
CREATION_DATE  = 
ORIGINATOR     = 

OBJECT_NAME    = ISS (ZARYA)
OBJECT_ID      = 1998-067A
CENTER_NAME    = EARTH
REF_FRAME      = TEME
TIME_SYSTEM    = UTC
MEAN_ELEMENT_THEORY = SGP/SGP4

EPOCH          = 2026-01-25T12:42:34.321824
MEAN_MOTION    = 15.48176704
ECCENTRICITY   = .00109586
INCLINATION    = 51.6317
RA_OF_ASC_NODE = 285.7043
ARG_OF_PERICENTER = 29.6295
MEAN_ANOMALY   = 330.5312

EPHEMERIS_TYPE = 0
CLASSIFICATION_TYPE = U
NORAD_CAT_ID   = 25544
ELEMENT_SET_NO = 999
REV_AT_EPOCH   = 54964
BSTAR          = .28509977E-3
MEAN_MOTION_DOT = .1487E-3
MEAN_MOTION_DDOT = 0

CCSDS_OMM_VERS = 2.0
CREATION_DATE  = 
ORIGINATOR     = 

OBJECT_NAME    = CZ-4B R/B
OBJECT_ID      = 1999-025C
CENTER_NAME    = EARTH
REF_FRAME      = TEME
TIME_SYSTEM    = UTC
MEAN_ELEMENT_THEORY = SGP/SGP4

EPOCH          = 2026-01-25T13:55:22.233216
MEAN_MOTION    = 14.18255986
ECCENTRICITY   = .00381614
INCLINATION    = 98.6708
RA_OF_ASC_NODE = 70.8665
ARG_OF_PERICENTER = 108.5480
MEAN_ANOMALY   = 54.0627

EPHEMERIS_TYPE = 0
CLASSIFICATION_TYPE = U
NORAD_CAT_ID   = 25732
ELEMENT_SET_NO = 999
REV_AT_EPOCH   = 38205
BSTAR          = .74408191E-4
MEAN_MOTION_DOT = .111E-5
MEAN_MOTION_DDOT = 0

CCSDS_OMM_VERS = 2.0
CREATION_DATE  = 
ORIGINATOR     = 

OBJECT_NAME    = OKEAN-O
OBJECT_ID      = 1999-039A
CENTER_NAME    = EARTH
REF_FRAME      = TEME
TIME_SYSTEM    = UTC
MEAN_ELEMENT_THEORY = SGP/SGP4

EPOCH          = 2026-01-25T14:15:14.512608
MEAN_MOTION    = 14.80257328
ECCENTRICITY   = .00018854
INCLINATION    = 97.9533
RA_OF_ASC_NODE = 85.9034
ARG_OF_PERICENTER = 98.4850
MEAN_ANOMALY   = 261.6576

EPHEMERIS_TYPE = 0
CLASSIFICATION_TYPE = U
NORAD_CAT_ID   = 25860
ELEMENT_SET_NO = 999
REV_AT_EPOCH   = 42801
BSTAR          = .18718394E-3
MEAN_MOTION_DOT = .1372E-4
MEAN_MOTION_DDOT = 0

CCSDS_OMM_VERS = 2.0
CREATION_DATE  = 
ORIGINATOR     = 

OBJECT_NAME    = SL-16 R/B
OBJECT_ID      = 1999-039B
CENTER_NAME    = EARTH
REF_FRAME      = TEME
TIME_SYSTEM    = UTC
MEAN_ELEMENT_THEORY = SGP/SGP4

EPOCH          = 2026-01-25T14:45:00.313344
MEAN_MOTION    = 14.81664601
ECCENTRICITY   = .00156744
INCLINATION    = 98.0059
RA_OF_ASC_NODE = 84.7552
ARG_OF_PERICENTER = 41.4253
MEAN_ANOMALY   = 318.8145

EPHEMERIS_TYPE = 0
CLASSIFICATION_TYPE = U
NORAD_CAT_ID   = 25861
ELEMENT_SET_NO = 999
REV_AT_EPOCH   = 43048
BSTAR          = .14567466E-3
MEAN_MOTION_DOT = .1094E-4
MEAN_MOTION_DDOT = 0

CCSDS_OMM_VERS = 2.0
CREATION_DATE  = 
ORIGINATOR     = 

OBJECT_NAME    = DELTA 2 R/B
OBJECT_ID      = 1999-041E
CENTER_NAME    = EARTH
REF_FRAME      = TEME
TIME_SYSTEM    = UTC
MEAN_ELEMENT_THEORY = SGP/SGP4

EPOCH          = 2026-01-25T14:40:25.411008
MEAN_MOTION    = 14.11630724
ECCENTRICITY   = .05028914
INCLINATION    = 51.7626
RA_OF_ASC_NODE = 113.2985
ARG_OF_PERICENTER = 221.1427
MEAN_ANOMALY   = 135.0553

EPHEMERIS_TYPE = 0
CLASSIFICATION_TYPE = U
NORAD_CAT_ID   = 25876
ELEMENT_SET_NO = 999
REV_AT_EPOCH   = 35694
BSTAR          = .68958812E-3
MEAN_MOTION_DOT = .4058E-4
MEAN_MOTION_DDOT = 0

CCSDS_OMM_VERS = 2.0
CREATION_DATE  = 
ORIGINATOR     = 

OBJECT_NAME    = HELIOS 1B
OBJECT_ID      = 1999-064A
CENTER_NAME    = EARTH
REF_FRAME      = TEME
TIME_SYSTEM    = UTC
MEAN_ELEMENT_THEORY = SGP/SGP4

EPOCH          = 2026-01-25T15:58:15.925440
MEAN_MOTION    = 14.87503086
ECCENTRICITY   = .00013123
INCLINATION    = 98.1733
RA_OF_ASC_NODE = 286.6365
ARG_OF_PERICENTER = 132.0925
MEAN_ANOMALY   = 228.0402

EPHEMERIS_TYPE = 0
CLASSIFICATION_TYPE = U
NORAD_CAT_ID   = 25977
ELEMENT_SET_NO = 999
REV_AT_EPOCH   = 67886
BSTAR          = .38101715E-3
MEAN_MOTION_DOT = .3397E-4
MEAN_MOTION_DDOT = 0

CCSDS_OMM_VERS = 2.0
CREATION_DATE  = 
ORIGINATOR     = 

OBJECT_NAME    = TERRA
OBJECT_ID      = 1999-068A
CENTER_NAME    = EARTH
REF_FRAME      = TEME
TIME_SYSTEM    = UTC
MEAN_ELEMENT_THEORY = SGP/SGP4

EPOCH          = 2026-01-25T15:46:22.562112
MEAN_MOTION    = 14.60963077
ECCENTRICITY   = .0001609
INCLINATION    = 97.9683
RA_OF_ASC_NODE = 80.7163
ARG_OF_PERICENTER = 352.2660
MEAN_ANOMALY   = 177.6638

EPHEMERIS_TYPE = 0
CLASSIFICATION_TYPE = U
NORAD_CAT_ID   = 25994
ELEMENT_SET_NO = 999
REV_AT_EPOCH   = 38879
BSTAR          = .17684475E-3
MEAN_MOTION_DOT = .822E-5
MEAN_MOTION_DDOT = 0

CCSDS_OMM_VERS = 2.0
CREATION_DATE  = 
ORIGINATOR     = 

OBJECT_NAME    = SL-16 R/B
OBJECT_ID      = 2000-006B
CENTER_NAME    = EARTH
REF_FRAME      = TEME
TIME_SYSTEM    = UTC
MEAN_ELEMENT_THEORY = SGP/SGP4

EPOCH          = 2026-01-25T11:47:11.037408
MEAN_MOTION    = 14.15814327
ECCENTRICITY   = .00186335
INCLINATION    = 71.0007
RA_OF_ASC_NODE = 188.6655
ARG_OF_PERICENTER = 249.6679
MEAN_ANOMALY   = 110.2442

EPHEMERIS_TYPE = 0
CLASSIFICATION_TYPE = U
NORAD_CAT_ID   = 26070
ELEMENT_SET_NO = 999
REV_AT_EPOCH   = 34244
BSTAR          = .16267906E-3
MEAN_MOTION_DOT = .272E-5
MEAN_MOTION_DDOT = 0

CCSDS_OMM_VERS = 2.0
CREATION_DATE  = 
ORIGINATOR     = 

OBJECT_NAME    = TITAN 4B R/B
OBJECT_ID      = 2000-047B
CENTER_NAME    = EARTH
REF_FRAME      = TEME
TIME_SYSTEM    = UTC
MEAN_ELEMENT_THEORY = SGP/SGP4

EPOCH          = 2026-01-25T14:57:38.002464
MEAN_MOTION    = 15.09175393
ECCENTRICITY   = .00368387
INCLINATION    = 67.9892
RA_OF_ASC_NODE = 161.5746
ARG_OF_PERICENTER = 89.2250
MEAN_ANOMALY   = 271.3120

EPHEMERIS_TYPE = 0
CLASSIFICATION_TYPE = U
NORAD_CAT_ID   = 26474
ELEMENT_SET_NO = 999
REV_AT_EPOCH   = 38641
BSTAR          = .40826221E-3
MEAN_MOTION_DOT = .6475E-4
MEAN_MOTION_DDOT = 0

CCSDS_OMM_VERS = 2.0
CREATION_DATE  = 
ORIGINATOR     = 

OBJECT_NAME    = ENVISAT
OBJECT_ID      = 2002-009A
CENTER_NAME    = EARTH
REF_FRAME      = TEME
TIME_SYSTEM    = UTC
MEAN_ELEMENT_THEORY = SGP/SGP4

EPOCH          = 2026-01-25T12:18:16.570656
MEAN_MOTION    = 14.39019036
ECCENTRICITY   = .00012285
INCLINATION    = 98.3659
RA_OF_ASC_NODE = 340.1579
ARG_OF_PERICENTER = 91.7854
MEAN_ANOMALY   = 22.5153

EPHEMERIS_TYPE = 0
CLASSIFICATION_TYPE = U
NORAD_CAT_ID   = 27386
ELEMENT_SET_NO = 999
REV_AT_EPOCH   = 25296
BSTAR          = .10060086E-3
MEAN_MOTION_DOT = .268E-5
MEAN_MOTION_DDOT = 0

